CCSDS_OMM_VERS = 2.0
CREATION_DATE  = 
ORIGINATOR     = 

OBJECT_NAME    = STARLINK-36390
OBJECT_ID      = 2026-035H
CENTER_NAME    = EARTH
REF_FRAME      = TEME
TIME_SYSTEM    = UTC
MEAN_ELEMENT_THEORY = SGP/SGP4

EPOCH          = 2026-03-19T18:59:56.071680
MEAN_MOTION    = 15.75218975
ECCENTRICITY   = .0001135
INCLINATION    = 97.2859
RA_OF_ASC_NODE = 11.6844
ARG_OF_PERICENTER = 84.2606
MEAN_ANOMALY   = 275.8788

EPHEMERIS_TYPE = 0
CLASSIFICATION_TYPE = U
NORAD_CAT_ID   = 67886
ELEMENT_SET_NO = 999
REV_AT_EPOCH   = 543
BSTAR          = .70223E-3
MEAN_MOTION_DOT = .106053E-2
MEAN_MOTION_DDOT = 0

CCSDS_OMM_VERS = 2.0
CREATION_DATE  = 
ORIGINATOR     = 

OBJECT_NAME    = STARLINK-36368
OBJECT_ID      = 2026-035J
CENTER_NAME    = EARTH
REF_FRAME      = TEME
TIME_SYSTEM    = UTC
MEAN_ELEMENT_THEORY = SGP/SGP4

EPOCH          = 2026-03-19T18:34:04.694016
MEAN_MOTION    = 15.81001324
ECCENTRICITY   = .0001362
INCLINATION    = 97.2883
RA_OF_ASC_NODE = 11.7061
ARG_OF_PERICENTER = 128.9413
MEAN_ANOMALY   = 231.1977

EPHEMERIS_TYPE = 0
CLASSIFICATION_TYPE = U
NORAD_CAT_ID   = 67887
ELEMENT_SET_NO = 999
REV_AT_EPOCH   = 543
BSTAR          = .21625E-2
MEAN_MOTION_DOT = .439345E-2
MEAN_MOTION_DDOT = 0

CCSDS_OMM_VERS = 2.0
CREATION_DATE  = 
ORIGINATOR     = 

OBJECT_NAME    = STARLINK-36801
OBJECT_ID      = 2026-035K
CENTER_NAME    = EARTH
REF_FRAME      = TEME
TIME_SYSTEM    = UTC
MEAN_ELEMENT_THEORY = SGP/SGP4

EPOCH          = 2026-03-19T18:33:04.459392
MEAN_MOTION    = 15.80310588
ECCENTRICITY   = .0002361
INCLINATION    = 97.2870
RA_OF_ASC_NODE = 11.7063
ARG_OF_PERICENTER = 100.6270
MEAN_ANOMALY   = 259.5264

EPHEMERIS_TYPE = 0
CLASSIFICATION_TYPE = U
NORAD_CAT_ID   = 67888
ELEMENT_SET_NO = 999
REV_AT_EPOCH   = 543
BSTAR          = -.38815E-2
MEAN_MOTION_DOT = -.673449E-2
MEAN_MOTION_DDOT = 0

CCSDS_OMM_VERS = 2.0
CREATION_DATE  = 
ORIGINATOR     = 

OBJECT_NAME    = STARLINK-36372
OBJECT_ID      = 2026-035L
CENTER_NAME    = EARTH
REF_FRAME      = TEME
TIME_SYSTEM    = UTC
MEAN_ELEMENT_THEORY = SGP/SGP4

EPOCH          = 2026-03-19T20:00:01.999008
MEAN_MOTION    = 15.75199226
ECCENTRICITY   = .0001602
INCLINATION    = 97.2857
RA_OF_ASC_NODE = 11.7685
ARG_OF_PERICENTER = 89.9227
MEAN_ANOMALY   = 242.7078

EPHEMERIS_TYPE = 0
CLASSIFICATION_TYPE = U
NORAD_CAT_ID   = 67889
ELEMENT_SET_NO = 999
REV_AT_EPOCH   = 539
BSTAR          = -.11192E-3
MEAN_MOTION_DOT = -.16797E-3
MEAN_MOTION_DDOT = 0

CCSDS_OMM_VERS = 2.0
CREATION_DATE  = 
ORIGINATOR     = 

OBJECT_NAME    = STARLINK-36363
OBJECT_ID      = 2026-035M
CENTER_NAME    = EARTH
REF_FRAME      = TEME
TIME_SYSTEM    = UTC
MEAN_ELEMENT_THEORY = SGP/SGP4

EPOCH          = 2026-03-19T18:54:50.220000
MEAN_MOTION    = 15.75163340
ECCENTRICITY   = .0001029
INCLINATION    = 97.2872
RA_OF_ASC_NODE = 11.6888
ARG_OF_PERICENTER = 84.0209
MEAN_ANOMALY   = 276.1174

EPHEMERIS_TYPE = 0
CLASSIFICATION_TYPE = U
NORAD_CAT_ID   = 67890
ELEMENT_SET_NO = 999
REV_AT_EPOCH   = 543
BSTAR          = .61089E-3
MEAN_MOTION_DOT = .91867E-3
MEAN_MOTION_DDOT = 0

CCSDS_OMM_VERS = 2.0
CREATION_DATE  = 
ORIGINATOR     = 

OBJECT_NAME    = STARLINK-36816
OBJECT_ID      = 2026-035N
CENTER_NAME    = EARTH
REF_FRAME      = TEME
TIME_SYSTEM    = UTC
MEAN_ELEMENT_THEORY = SGP/SGP4

EPOCH          = 2026-03-19T18:16:45.880896
MEAN_MOTION    = 15.80982094
ECCENTRICITY   = .0002123
INCLINATION    = 97.2882
RA_OF_ASC_NODE = 11.7186
ARG_OF_PERICENTER = 118.8713
MEAN_ANOMALY   = 241.2769

EPHEMERIS_TYPE = 0
CLASSIFICATION_TYPE = U
NORAD_CAT_ID   = 67891
ELEMENT_SET_NO = 999
REV_AT_EPOCH   = 543
BSTAR          = .18547E-2
MEAN_MOTION_DOT = .373592E-2
MEAN_MOTION_DDOT = 0

CCSDS_OMM_VERS = 2.0
CREATION_DATE  = 
ORIGINATOR     = 

OBJECT_NAME    = STARLINK-36813
OBJECT_ID      = 2026-035P
CENTER_NAME    = EARTH
REF_FRAME      = TEME
TIME_SYSTEM    = UTC
MEAN_ELEMENT_THEORY = SGP/SGP4

EPOCH          = 2026-03-19T18:23:17.140704
MEAN_MOTION    = 15.80986360
ECCENTRICITY   = .0001898
INCLINATION    = 97.2889
RA_OF_ASC_NODE = 11.7105
ARG_OF_PERICENTER = 124.4201
MEAN_ANOMALY   = 235.7247

EPHEMERIS_TYPE = 0
CLASSIFICATION_TYPE = U
NORAD_CAT_ID   = 67892
ELEMENT_SET_NO = 999
REV_AT_EPOCH   = 543
BSTAR          = .22177E-2
MEAN_MOTION_DOT = .450836E-2
MEAN_MOTION_DDOT = 0

CCSDS_OMM_VERS = 2.0
CREATION_DATE  = 
ORIGINATOR     = 

OBJECT_NAME    = STARLINK-36803
OBJECT_ID      = 2026-035Q
CENTER_NAME    = EARTH
REF_FRAME      = TEME
TIME_SYSTEM    = UTC
MEAN_ELEMENT_THEORY = SGP/SGP4

EPOCH          = 2026-03-19T18:29:44.947968
MEAN_MOTION    = 15.80881474
ECCENTRICITY   = .0001252
INCLINATION    = 97.2883
RA_OF_ASC_NODE = 11.7088
ARG_OF_PERICENTER = 117.1278
MEAN_ANOMALY   = 243.0118

EPHEMERIS_TYPE = 0
CLASSIFICATION_TYPE = U
NORAD_CAT_ID   = 67893
ELEMENT_SET_NO = 999
REV_AT_EPOCH   = 543
BSTAR          = .99677E-3
MEAN_MOTION_DOT = .195715E-2
MEAN_MOTION_DDOT = 0

CCSDS_OMM_VERS = 2.0
CREATION_DATE  = 
ORIGINATOR     = 

OBJECT_NAME    = STARLINK-36846
OBJECT_ID      = 2026-035R
CENTER_NAME    = EARTH
REF_FRAME      = TEME
TIME_SYSTEM    = UTC
MEAN_ELEMENT_THEORY = SGP/SGP4

EPOCH          = 2026-03-19T18:57:22.023072
MEAN_MOTION    = 15.75184654
ECCENTRICITY   = .0000852
INCLINATION    = 97.2859
RA_OF_ASC_NODE = 11.6836
ARG_OF_PERICENTER = 119.6411
MEAN_ANOMALY   = 240.4939

EPHEMERIS_TYPE = 0
CLASSIFICATION_TYPE = U
NORAD_CAT_ID   = 67894
ELEMENT_SET_NO = 999
REV_AT_EPOCH   = 543
BSTAR          = .23365E-3
MEAN_MOTION_DOT = .34854E-3
MEAN_MOTION_DDOT = 0

CCSDS_OMM_VERS = 2.0
CREATION_DATE  = 
ORIGINATOR     = 

OBJECT_NAME    = STARLINK-36866
OBJECT_ID      = 2026-035S
CENTER_NAME    = EARTH
REF_FRAME      = TEME
TIME_SYSTEM    = UTC
MEAN_ELEMENT_THEORY = SGP/SGP4

EPOCH          = 2026-03-19T20:00:01.999008
MEAN_MOTION    = 15.75186204
ECCENTRICITY   = .0001545
INCLINATION    = 97.2869
RA_OF_ASC_NODE = 11.7510
ARG_OF_PERICENTER = 90.0864
MEAN_ANOMALY   = 200.5475

EPHEMERIS_TYPE = 0
CLASSIFICATION_TYPE = U
NORAD_CAT_ID   = 67895
ELEMENT_SET_NO = 999
REV_AT_EPOCH   = 539
BSTAR          = .87747E-4
MEAN_MOTION_DOT = .12976E-3
MEAN_MOTION_DDOT = 0

CCSDS_OMM_VERS = 2.0
CREATION_DATE  = 
ORIGINATOR     = 

OBJECT_NAME    = STARLINK-36877
OBJECT_ID      = 2026-035T
CENTER_NAME    = EARTH
REF_FRAME      = TEME
TIME_SYSTEM    = UTC
MEAN_ELEMENT_THEORY = SGP/SGP4

EPOCH          = 2026-03-19T18:28:39.925920
MEAN_MOTION    = 15.80995467
ECCENTRICITY   = .0001675
INCLINATION    = 97.2885
RA_OF_ASC_NODE = 11.7090
ARG_OF_PERICENTER = 135.1017
MEAN_ANOMALY   = 225.0387

EPHEMERIS_TYPE = 0
CLASSIFICATION_TYPE = U
NORAD_CAT_ID   = 67896
ELEMENT_SET_NO = 999
REV_AT_EPOCH   = 543
BSTAR          = .18806E-2
MEAN_MOTION_DOT = .379297E-2
MEAN_MOTION_DDOT = 0

CCSDS_OMM_VERS = 2.0
CREATION_DATE  = 
ORIGINATOR     = 

OBJECT_NAME    = STARLINK-36870
OBJECT_ID      = 2026-035U
CENTER_NAME    = EARTH
REF_FRAME      = TEME
TIME_SYSTEM    = UTC
MEAN_ELEMENT_THEORY = SGP/SGP4

EPOCH          = 2026-03-19T18:25:24.945312
MEAN_MOTION    = 15.80930329
ECCENTRICITY   = .0002713
INCLINATION    = 97.2865
RA_OF_ASC_NODE = 11.7101
ARG_OF_PERICENTER = 119.1607
MEAN_ANOMALY   = 240.9933

EPHEMERIS_TYPE = 0
CLASSIFICATION_TYPE = U
NORAD_CAT_ID   = 67897
ELEMENT_SET_NO = 999
REV_AT_EPOCH   = 543
BSTAR          = .11492E-2
MEAN_MOTION_DOT = .227009E-2
MEAN_MOTION_DDOT = 0

